STARLINK-3360           
1 51149U 22005AX  25274.08533990 -.00001500  00000+0 -76184-4 0  9993
2 51149  53.2179 305.4317 0001218  89.4931 270.6201 15.08826379204506
STARLINK-3357           
1 51150U 22005AY  25274.28767242 -.00000647  00000+0 -22566-4 0  9992
2 51150  53.2175 294.3213 0001471  95.3086 264.8074 15.08831895204684
STARLINK-3361           
1 51151U 22005AZ  25274.33336806  .00416375  00000+0  19031-2 0  9995
2 51151  53.1925 215.1721 0006312  72.0960 204.7611 15.82076682  5950
STARLINK-3364           
1 51152U 22005BA  25274.26100057  .00003430  00000+0  23356-3 0  9995
2 51152  53.2186 304.4428 0001413 109.4957 250.6188 15.08826785204534
STARLINK-3181           
1 51461U 22010F   25274.26379830  .00000143  00000+0  27046-4 0  9990
2 51461  53.2152 274.8131 0001407  93.1078 267.0075 15.08838908202756
STARLINK-3166           
1 51462U 22010G   25274.26107748 -.00001707  00000+0 -89210-4 0  9998
2 51462  53.2161 274.8361 0001408  81.8303 278.2849 15.08832201202751
STARLINK-3419           
1 51463U 22010H   25274.30060524 -.00000662  00000+0 -23484-4 0  9994
2 51463  53.2168 274.6503 0001387  91.5651 268.5500 15.08837576202458
STARLINK-3189           
1 51464U 22010J   25274.25276719  .00004440  00000+0  29692-3 0  9996
2 51464  53.2160 274.8637 0001427  89.8694 270.2462 15.08835992203259
STARLINK-3401           
1 51465U 22010K   25274.24907928 -.00001210  00000+0 -57908-4 0  9995
2 51465  53.2167 274.8810 0001359  93.6200 266.4947 15.08845436203259
STARLINK-3178           
1 51467U 22010M   25274.29690219  .00002019  00000+0  14489-3 0  9996
2 51467  53.2170 274.6629 0001506  91.8629 268.2536 15.08852182202451
STARLINK-3174           
1 51468U 22010N   25274.30427243  .00000659  00000+0  59485-4 0  9998
2 51468  53.2172 274.5960 0001561  97.0428 263.0742 15.08833483202452
STARLINK-3182           
1 51469U 22010P   25274.25644029  .00000354  00000+0  40358-4 0  9997
2 51469  53.2164 274.8467 0001434  86.1732 273.9424 15.08837692202751
STARLINK-3415           
1 51472U 22010S   25274.29786569 -.00000211  00000+0  48462-5 0  9999
2 51472  53.2168 274.5961 0001611  96.4509 263.6667 15.08838381202760
STARLINK-3528           
1 51714U 22016A   25274.30430770 -.00000589  00000+0 -18894-4 0  9990
2 51714  53.2167 324.6107 0001432  86.9601 273.1555 15.08837402199361
STARLINK-3533           
1 51715U 22016B   25274.29695507 -.00001338  00000+0 -66026-4 0  9993
2 51715  53.2173 324.6745 0001465  93.7979 266.3180 15.08835957200495
STARLINK-3543           
1 51716U 22016C   25274.30336307 -.00000492  00000+0 -12806-4 0  9993
2 51716  53.2194 324.6402 0001587 104.6105 255.5064 15.08829477199361
