[{"OBJECT_NAME":"STARLINK-3360","OBJECT_ID":"2022-005AX","EPOCH":"2025-10-01T02:02:53.367360","MEAN_MOTION":15.08826379,"ECCENTRICITY":0.0001218,"INCLINATION":53.2179,"RA_OF_ASC_NODE":305.4317,"ARG_OF_PERICENTER":89.4931,"MEAN_ANOMALY":270.6201,"EPHEMERIS_TYPE":0,"CLASSIFICATION_TYPE":"U","NORAD_CAT_ID":51149,"ELEMENT_SET_NO":999,"REV_AT_EPOCH":20450,"BSTAR":-7.6183521e-5,"MEAN_MOTION_DOT":-1.5e-5,"MEAN_MOTION_DDOT":0},{"OBJECT_NAME":"STARLINK-3357","OBJECT_ID":"2022-005AY","EPOCH":"2025-10-01T06:54:14.897088","MEAN_MOTION":15.08831895,"ECCENTRICITY":0.00014717,"INCLINATION":53.2175,"RA_OF_ASC_NODE":294.3213,"ARG_OF_PERICENTER":95.3086,"MEAN_ANOMALY":264.8074,"EPHEMERIS_TYPE":0,"CLASSIFICATION_TYPE":"U","NORAD_CAT_ID":51150,"ELEMENT_SET_NO":999,"REV_AT_EPOCH":20468,"BSTAR":-2.2565983e-5,"MEAN_MOTION_DOT":-6.47e-6,"MEAN_MOTION_DDOT":0},{"OBJECT_NAME":"STARLINK-3361","OBJECT_ID":"2022-005AZ","EPOCH":"2025-10-01T08:00:03.000384","MEAN_MOTION":15.82076682,"ECCENTRICITY":0.00063129,"INCLINATION":53.1925,"RA_OF_ASC_NODE":215.1721,"ARG_OF_PERICENTER":72.096,"MEAN_ANOMALY":204.7611,"EPHEMERIS_TYPE":0,"CLASSIFICATION_TYPE":"U","NORAD_CAT_ID":51151,"ELEMENT_SET_NO":999,"REV_AT_EPOCH":595,"BSTAR":0.0019030549,"MEAN_MOTION_DOT":0.00416375,"MEAN_MOTION_DDOT":0},{"OBJECT_NAME":"STARLINK-3364","OBJECT_ID":"2022-005BA","EPOCH":"2025-10-01T06:15:50.449248","MEAN_MOTION":15.08826785,"ECCENTRICITY":0.00014137,"INCLINATION":53.2186,"RA_OF_ASC_NODE":304.4428,"ARG_OF_PERICENTER":109.4957,"MEAN_ANOMALY":250.6188,"EPHEMERIS_TYPE":0,"CLASSIFICATION_TYPE":"U","NORAD_CAT_ID":51152,"ELEMENT_SET_NO":999,"REV_AT_EPOCH":20453,"BSTAR":0.00023356022,"MEAN_MOTION_DOT":3.43e-5,"MEAN_MOTION_DDOT":0},{"OBJECT_NAME":"STARLINK-3181","OBJECT_ID":"2022-010F","EPOCH":"2025-10-01T06:19:52.173120","MEAN_MOTION":15.08838908,"ECCENTRICITY":0.00014075,"INCLINATION":53.2152,"RA_OF_ASC_NODE":274.8131,"ARG_OF_PERICENTER":93.1078,"MEAN_ANOMALY":267.0075,"EPHEMERIS_TYPE":0,"CLASSIFICATION_TYPE":"U","NORAD_CAT_ID":51461,"ELEMENT_SET_NO":999,"REV_AT_EPOCH":20275,"BSTAR":2.7045809e-5,"MEAN_MOTION_DOT":1.43e-6,"MEAN_MOTION_DDOT":0},{"OBJECT_NAME":"STARLINK-3166","OBJECT_ID":"2022-010G","EPOCH":"2025-10-01T06:15:57.094272","MEAN_MOTION":15.08832201,"ECCENTRICITY":0.0001408,"INCLINATION":53.2161,"RA_OF_ASC_NODE":274.8361,"ARG_OF_PERICENTER":81.8303,"MEAN_ANOMALY":278.2849,"EPHEMERIS_TYPE":0,"CLASSIFICATION_TYPE":"U","NORAD_CAT_ID":51462,"ELEMENT_SET_NO":999,"REV_AT_EPOCH":20275,"BSTAR":-8.9209585e-5,"MEAN_MOTION_DOT":-1.707e-5,"MEAN_MOTION_DDOT":0},{"OBJECT_NAME":"STARLINK-3419","OBJECT_ID":"2022-010H","EPOCH":"2025-10-01T07:12:52.292736","MEAN_MOTION":15.08837576,"ECCENTRICITY":0.00013875,"INCLINATION":53.2168,"RA_OF_ASC_NODE":274.6503,"ARG_OF_PERICENTER":91.5651,"MEAN_ANOMALY":268.55,"EPHEMERIS_TYPE":0,"CLASSIFICATION_TYPE":"U","NORAD_CAT_ID":51463,"ELEMENT_SET_NO":999,"REV_AT_EPOCH":20245,"BSTAR":-2.34839e-5,"MEAN_MOTION_DOT":-6.62e-6,"MEAN_MOTION_DDOT":0},{"OBJECT_NAME":"STARLINK-3189","OBJECT_ID":"2022-010J","EPOCH":"2025-10-01T06:03:59.085216","MEAN_MOTION":15.08835992,"ECCENTRICITY":0.00014273,"INCLINATION":53.216,"RA_OF_ASC_NODE":274.8637,"ARG_OF_PERICENTER":89.8694,"MEAN_ANOMALY":270.2462,"EPHEMERIS_TYPE":0,"CLASSIFICATION_TYPE":"U","NORAD_CAT_ID":51464,"ELEMENT_SET_NO":999,"REV_AT_EPOCH":20325,"BSTAR":0.00029692406,"MEAN_MOTION_DOT":4.44e-5,"MEAN_MOTION_DDOT":0},{"OBJECT_NAME":"STARLINK-3401","OBJECT_ID":"2022-010K","EPOCH":"2025-10-01T05:58:40.449792","MEAN_MOTION":15.08845436,"ECCENTRICITY":0.00013593,"INCLINATION":53.2167,"RA_OF_ASC_NODE":274.881,"ARG_OF_PERICENTER":93.62,"MEAN_ANOMALY":266.4947,"EPHEMERIS_TYPE":0,"CLASSIFICATION_TYPE":"U","NORAD_CAT_ID":51465,"ELEMENT_SET_NO":999,"REV_AT_EPOCH":20325,"BSTAR":-5.7907959e-5,"MEAN_MOTION_DOT":-1.21e-5,"MEAN_MOTION_DDOT":0},{"OBJECT_NAME":"STARLINK-3178","OBJECT_ID":"2022-010M","EPOCH":"2025-10-01T07:07:32.349216","MEAN_MOTION":15.08852182,"ECCENTRICITY":0.00015063,"INCLINATION":53.217,"RA_OF_ASC_NODE":274.6629,"ARG_OF_PERICENTER":91.8629,"MEAN_ANOMALY":268.2536,"EPHEMERIS_TYPE":0,"CLASSIFICATION_TYPE":"U","NORAD_CAT_ID":51467,"ELEMENT_SET_NO":999,"REV_AT_EPOCH":20245,"BSTAR":0.00014489385,"MEAN_MOTION_DOT":2.019e-5,"MEAN_MOTION_DDOT":0},{"OBJECT_NAME":"STARLINK-3174","OBJECT_ID":"2022-010N","EPOCH":"2025-10-01T07:18:09.137952","MEAN_MOTION":15.08833483,"ECCENTRICITY":0.00015611,"INCLINATION":53.2172,"RA_OF_ASC_NODE":274.596,"ARG_OF_PERICENTER":97.0428,"MEAN_ANOMALY":263.0742,"EPHEMERIS_TYPE":0,"CLASSIFICATION_TYPE":"U","NORAD_CAT_ID":51468,"ELEMENT_SET_NO":999,"REV_AT_EPOCH":20245,"BSTAR":5.9485205e-5,"MEAN_MOTION_DOT":6.59e-6,"MEAN_MOTION_DDOT":0},{"OBJECT_NAME":"STARLINK-3182","OBJECT_ID":"2022-010P","EPOCH":"2025-10-01T06:09:16.441056","MEAN_MOTION":15.08837692,"ECCENTRICITY":0.00014341,"INCLINATION":53.2164,"RA_OF_ASC_NODE":274.8467,"ARG_OF_PERICENTER":86.1732,"MEAN_ANOMALY":273.9424,"EPHEMERIS_TYPE":0,"CLASSIFICATION_TYPE":"U","NORAD_CAT_ID":51469,"ELEMENT_SET_NO":999,"REV_AT_EPOCH":20275,"BSTAR":4.0357565e-5,"MEAN_MOTION_DOT":3.54e-6,"MEAN_MOTION_DDOT":0},{"OBJECT_NAME":"STARLINK-3415","OBJECT_ID":"2022-010S","EPOCH":"2025-10-01T07:08:55.595616","MEAN_MOTION":15.08838381,"ECCENTRICITY":0.00016114,"INCLINATION":53.2168,"RA_OF_ASC_NODE":274.5961,"ARG_OF_PERICENTER":96.4509,"MEAN_ANOMALY":263.6667,"EPHEMERIS_TYPE":0,"CLASSIFICATION_TYPE":"U","NORAD_CAT_ID":51472,"ELEMENT_SET_NO":999,"REV_AT_EPOCH":20276,"BSTAR":4.84616e-6,"MEAN_MOTION_DOT":-2.11e-6,"MEAN_MOTION_DDOT":0},{"OBJECT_NAME":"STARLINK-3528","OBJECT_ID":"2022-016A","EPOCH":"2025-10-01T07:18:12.185280","MEAN_MOTION":15.08837402,"ECCENTRICITY":0.00014323,"INCLINATION":53.2167,"RA_OF_ASC_NODE":324.6107,"ARG_OF_PERICENTER":86.9601,"MEAN_ANOMALY":273.1555,"EPHEMERIS_TYPE":0,"CLASSIFICATION_TYPE":"U","NORAD_CAT_ID":51714,"ELEMENT_SET_NO":999,"REV_AT_EPOCH":19936,"BSTAR":-1.8893883e-5,"MEAN_MOTION_DOT":-5.89e-6,"MEAN_MOTION_DDOT":0},{"OBJECT_NAME":"STARLINK-3533","OBJECT_ID":"2022-016B","EPOCH":"2025-10-01T07:07:36.918048","MEAN_MOTION":15.08835957,"ECCENTRICITY":0.00014659,"INCLINATION":53.2173,"RA_OF_ASC_NODE":324.6745,"ARG_OF_PERICENTER":93.7979,"MEAN_ANOMALY":266.318,"EPHEMERIS_TYPE":0,"CLASSIFICATION_TYPE":"U","NORAD_CAT_ID":51715,"ELEMENT_SET_NO":999,"REV_AT_EPOCH":20049,"BSTAR":-6.6025862e-5,"MEAN_MOTION_DOT":-1.338e-5,"MEAN_MOTION_DDOT":0},{"OBJECT_NAME":"STARLINK-3543","OBJECT_ID":"2022-016C","EPOCH":"2025-10-01T07:16:50.569248","MEAN_MOTION":15.08829477,"ECCENTRICITY":0.00015879,"INCLINATION":53.2194,"RA_OF_ASC_NODE":324.6402,"ARG_OF_PERICENTER":104.6105,"MEAN_ANOMALY":255.5064,"EPHEMERIS_TYPE":0,"CLASSIFICATION_TYPE":"U","NORAD_CAT_ID":51716,"ELEMENT_SET_NO":999,"REV_AT_EPOCH":19936,"BSTAR":-1.2806283e-5,"MEAN_MOTION_DOT":-4.92e-6,"MEAN_MOTION_DDOT":0}]
